[{"OBJECT_NAME":"TIANMU-1 09","OBJECT_ID":"2023-101C","EPOCH":"2026-03-09T22:17:34.703232","MEAN_MOTION":15.29080822,"ECCENTRICITY":0.00049013,"INCLINATION":97.267,"RA_OF_ASC_NODE":121.1263,"ARG_OF_PERICENTER":139.4293,"MEAN_ANOMALY":220.7314,"EPHEMERIS_TYPE":0,"CLASSIFICATION_TYPE":"U","NORAD_CAT_ID":57401,"ELEMENT_SET_NO":999,"REV_AT_EPOCH":14647,"BSTAR":0.00030540035,"MEAN_MOTION_DOT":8.553e-5,"MEAN_MOTION_DDOT":0},{"OBJECT_NAME":"STARLINK-34598","OBJECT_ID":"2025-147E","EPOCH":"2026-03-09T18:01:00.744384","MEAN_MOTION":15.30228609,"ECCENTRICITY":0.0001372,"INCLINATION":53.1584,"RA_OF_ASC_NODE":242.2833,"ARG_OF_PERICENTER":72.3669,"MEAN_ANOMALY":287.7482,"EPHEMERIS_TYPE":0,"CLASSIFICATION_TYPE":"U","NORAD_CAT_ID":64759,"ELEMENT_SET_NO":999,"REV_AT_EPOCH":3871,"BSTAR":0.00068603204,"MEAN_MOTION_DOT":0.00020032,"MEAN_MOTION_DDOT":0}]
